{
  "type": "FeatureCollection",
  "name": "Delhi_Drains_MPD1976_Full",
  "description": "Source: Master Plan Drainage 1976 - full list of drains by basin/zone. Coordinates are APPROXIMATE basin/zone-level area centroids (not actual drain paths or precise drain locations) since the source document contains no geospatial data.",
  "crs": {
    "type": "name",
    "properties": {
      "name": "urn:ogc:def:crs:OGC:1.3:CRS84"
    }
  },
  "features": [
    {
      "type": "Feature",
      "properties": {
        "basin": "Mehrauli Basin",
        "drain_name": "Jaitpur drain",
        "seq_no": 1,
        "status": "Existing / Remodeling",
        "source": "MPD-1976"
      },
      "geometry": {
        "type": "Point",
        "coordinates": [
          77.1703,
          28.5058
        ]
      }
    },
    {
      "type": "Feature",
      "properties": {
        "basin": "Mehrauli Basin",
        "drain_name": "Toe Drain",
        "seq_no": 2,
        "status": "Existing / Remodeling",
        "source": "MPD-1976"
      },
      "geometry": {
        "type": "Point",
        "coordinates": [
          77.1703,
          28.5058
        ]
      }
    },
    {
      "type": "Feature",
      "properties": {
        "basin": "Mehrauli Basin",
        "drain_name": "Madanpur Khadar drain",
        "seq_no": 3,
        "status": "Existing / Remodeling",
        "source": "MPD-1976"
      },
      "geometry": {
        "type": "Point",
        "coordinates": [
          77.1703,
          28.5058
        ]
      }
    },
    {
      "type": "Feature",
      "properties": {
        "basin": "Mehrauli Basin",
        "drain_name": "Tuglakabad drain",
        "seq_no": 4,
        "status": "Existing / Remodeling",
        "source": "MPD-1976"
      },
      "geometry": {
        "type": "Point",
        "coordinates": [
          77.1703,
          28.5058
        ]
      }
    },
    {
      "type": "Feature",
      "properties": {
        "basin": "Mehrauli Basin",
        "drain_name": "MES Factory drain",
        "seq_no": 5,
        "status": "Existing / Remodeling",
        "source": "MPD-1976"
      },
      "geometry": {
        "type": "Point",
        "coordinates": [
          77.1703,
          28.5058
        ]
      }
    },
    {
      "type": "Feature",
      "properties": {
        "basin": "Mehrauli Basin",
        "drain_name": "Chirag Delhi drain",
        "seq_no": 6,
        "status": "Existing / Remodeling",
        "source": "MPD-1976"
      },
      "geometry": {
        "type": "Point",
        "coordinates": [
          77.1703,
          28.5058
        ]
      }
    },
    {
      "type": "Feature",
      "properties": {
        "basin": "Mehrauli Basin",
        "drain_name": "Saidula Jaib drain",
        "seq_no": 7,
        "status": "Existing / Remodeling",
        "source": "MPD-1976"
      },
      "geometry": {
        "type": "Point",
        "coordinates": [
          77.1703,
          28.5058
        ]
      }
    },
    {
      "type": "Feature",
      "properties": {
        "basin": "Mehrauli Basin",
        "drain_name": "Neb sarai Drain -I",
        "seq_no": 8,
        "status": "Existing / Remodeling",
        "source": "MPD-1976"
      },
      "geometry": {
        "type": "Point",
        "coordinates": [
          77.1703,
          28.5058
        ]
      }
    },
    {
      "type": "Feature",
      "properties": {
        "basin": "Mehrauli Basin",
        "drain_name": "Neb Sarai Drain-II",
        "seq_no": 9,
        "status": "Existing / Remodeling",
        "source": "MPD-1976"
      },
      "geometry": {
        "type": "Point",
        "coordinates": [
          77.1703,
          28.5058
        ]
      }
    },
    {
      "type": "Feature",
      "properties": {
        "basin": "Shahdara Basin",
        "drain_name": "Gokulpur drain",
        "seq_no": 1,
        "status": "Existing / Remodeling",
        "source": "MPD-1976"
      },
      "geometry": {
        "type": "Point",
        "coordinates": [
          77.2833,
          28.6667
        ]
      }
    },
    {
      "type": "Feature",
      "properties": {
        "basin": "Shahdara Basin",
        "drain_name": "Balbir Nagar drain",
        "seq_no": 2,
        "status": "Existing / Remodeling",
        "source": "MPD-1976"
      },
      "geometry": {
        "type": "Point",
        "coordinates": [
          77.2833,
          28.6667
        ]
      }
    },
    {
      "type": "Feature",
      "properties": {
        "basin": "Shahdara Basin",
        "drain_name": "S.S.Light Railway Drain",
        "seq_no": 3,
        "status": "Existing / Remodeling",
        "source": "MPD-1976"
      },
      "geometry": {
        "type": "Point",
        "coordinates": [
          77.2833,
          28.6667
        ]
      }
    },
    {
      "type": "Feature",
      "properties": {
        "basin": "Shahdara Basin",
        "drain_name": "Jyoti Colony Drain",
        "seq_no": 4,
        "status": "Existing / Remodeling",
        "source": "MPD-1976"
      },
      "geometry": {
        "type": "Point",
        "coordinates": [
          77.2833,
          28.6667
        ]
      }
    },
    {
      "type": "Feature",
      "properties": {
        "basin": "Shahdara Basin",
        "drain_name": "G.T.Road Drain No.I",
        "seq_no": 5,
        "status": "Existing / Remodeling",
        "source": "MPD-1976"
      },
      "geometry": {
        "type": "Point",
        "coordinates": [
          77.2833,
          28.6667
        ]
      }
    },
    {
      "type": "Feature",
      "properties": {
        "basin": "Shahdara Basin",
        "drain_name": "G.T.Road drain No.II",
        "seq_no": 6,
        "status": "Existing / Remodeling",
        "source": "MPD-1976"
      },
      "geometry": {
        "type": "Point",
        "coordinates": [
          77.2833,
          28.6667
        ]
      }
    },
    {
      "type": "Feature",
      "properties": {
        "basin": "Shahdara Basin",
        "drain_name": "Kailash Nagar drain",
        "seq_no": 7,
        "status": "Existing / Remodeling",
        "source": "MPD-1976"
      },
      "geometry": {
        "type": "Point",
        "coordinates": [
          77.2833,
          28.6667
        ]
      }
    },
    {
      "type": "Feature",
      "properties": {
        "basin": "Shahdara Basin",
        "drain_name": "Krishna Nagar Drain",
        "seq_no": 8,
        "status": "Existing / Remodeling",
        "source": "MPD-1976"
      },
      "geometry": {
        "type": "Point",
        "coordinates": [
          77.2833,
          28.6667
        ]
      }
    },
    {
      "type": "Feature",
      "properties": {
        "basin": "Shahdara Basin",
        "drain_name": "Kasturba Nagar drain",
        "seq_no": 9,
        "status": "Existing / Remodeling",
        "source": "MPD-1976"
      },
      "geometry": {
        "type": "Point",
        "coordinates": [
          77.2833,
          28.6667
        ]
      }
    },
    {
      "type": "Feature",
      "properties": {
        "basin": "Shahdara Basin",
        "drain_name": "Northern railway line drain",
        "seq_no": 10,
        "status": "Existing / Remodeling",
        "source": "MPD-1976"
      },
      "geometry": {
        "type": "Point",
        "coordinates": [
          77.2833,
          28.6667
        ]
      }
    },
    {
      "type": "Feature",
      "properties": {
        "basin": "Shahdara Basin",
        "drain_name": "Geeta Colony drain",
        "seq_no": 11,
        "status": "Existing / Remodeling",
        "source": "MPD-1976"
      },
      "geometry": {
        "type": "Point",
        "coordinates": [
          77.2833,
          28.6667
        ]
      }
    },
    {
      "type": "Feature",
      "properties": {
        "basin": "Shahdara Basin",
        "drain_name": "Patpar Ganj drain",
        "seq_no": 12,
        "status": "Existing / Remodeling",
        "source": "MPD-1976"
      },
      "geometry": {
        "type": "Point",
        "coordinates": [
          77.2833,
          28.6667
        ]
      }
    },
    {
      "type": "Feature",
      "properties": {
        "basin": "Shahdara Basin",
        "drain_name": "Khureji Khas Drain",
        "seq_no": 13,
        "status": "Existing / Remodeling",
        "source": "MPD-1976"
      },
      "geometry": {
        "type": "Point",
        "coordinates": [
          77.2833,
          28.6667
        ]
      }
    },
    {
      "type": "Feature",
      "properties": {
        "basin": "Shahdara Basin",
        "drain_name": "Radheypuri drain",
        "seq_no": 14,
        "status": "Existing / Remodeling",
        "source": "MPD-1976"
      },
      "geometry": {
        "type": "Point",
        "coordinates": [
          77.2833,
          28.6667
        ]
      }
    },
    {
      "type": "Feature",
      "properties": {
        "basin": "Shahdara Basin",
        "drain_name": "Laxmi Nagar Drain",
        "seq_no": 15,
        "status": "Existing / Remodeling",
        "source": "MPD-1976"
      },
      "geometry": {
        "type": "Point",
        "coordinates": [
          77.2833,
          28.6667
        ]
      }
    },
    {
      "type": "Feature",
      "properties": {
        "basin": "Shahdara Basin",
        "drain_name": "Disused Channel Part-I",
        "seq_no": 16,
        "status": "Existing / Remodeling",
        "source": "MPD-1976"
      },
      "geometry": {
        "type": "Point",
        "coordinates": [
          77.2833,
          28.6667
        ]
      }
    },
    {
      "type": "Feature",
      "properties": {
        "basin": "Shahdara Basin",
        "drain_name": "Disused Channel Part-II",
        "seq_no": 17,
        "status": "Existing / Remodeling",
        "source": "MPD-1976"
      },
      "geometry": {
        "type": "Point",
        "coordinates": [
          77.2833,
          28.6667
        ]
      }
    },
    {
      "type": "Feature",
      "properties": {
        "basin": "Shahdara Basin",
        "drain_name": "Disused Channel Part-III",
        "seq_no": 18,
        "status": "Existing / Remodeling",
        "source": "MPD-1976"
      },
      "geometry": {
        "type": "Point",
        "coordinates": [
          77.2833,
          28.6667
        ]
      }
    },
    {
      "type": "Feature",
      "properties": {
        "basin": "Shahdara Basin",
        "drain_name": "Shakarpur Drain No.I",
        "seq_no": 19,
        "status": "Existing / Remodeling",
        "source": "MPD-1976"
      },
      "geometry": {
        "type": "Point",
        "coordinates": [
          77.2833,
          28.6667
        ]
      }
    },
    {
      "type": "Feature",
      "properties": {
        "basin": "Shahdara Basin",
        "drain_name": "Shakarpur drain No.II",
        "seq_no": 20,
        "status": "Existing / Remodeling",
        "source": "MPD-1976"
      },
      "geometry": {
        "type": "Point",
        "coordinates": [
          77.2833,
          28.6667
        ]
      }
    },
    {
      "type": "Feature",
      "properties": {
        "basin": "Shahdara Basin",
        "drain_name": "Vinod nagar Drain",
        "seq_no": 21,
        "status": "Existing / Remodeling",
        "source": "MPD-1976"
      },
      "geometry": {
        "type": "Point",
        "coordinates": [
          77.2833,
          28.6667
        ]
      }
    },
    {
      "type": "Feature",
      "properties": {
        "basin": "Shahdara Basin",
        "drain_name": "N.H.Bye Pass drain",
        "seq_no": 22,
        "status": "Existing / Remodeling",
        "source": "MPD-1976"
      },
      "geometry": {
        "type": "Point",
        "coordinates": [
          77.2833,
          28.6667
        ]
      }
    },
    {
      "type": "Feature",
      "properties": {
        "basin": "Shahdara Basin",
        "drain_name": "Hindon cut drain",
        "seq_no": 23,
        "status": "Existing / Remodeling",
        "source": "MPD-1976"
      },
      "geometry": {
        "type": "Point",
        "coordinates": [
          77.2833,
          28.6667
        ]
      }
    },
    {
      "type": "Feature",
      "properties": {
        "basin": "Shahdara Basin",
        "drain_name": "Drain No.I",
        "seq_no": 24,
        "status": "Existing / Remodeling",
        "source": "MPD-1976"
      },
      "geometry": {
        "type": "Point",
        "coordinates": [
          77.2833,
          28.6667
        ]
      }
    },
    {
      "type": "Feature",
      "properties": {
        "basin": "Shahdara Basin",
        "drain_name": "Drain No.II",
        "seq_no": 25,
        "status": "Existing / Remodeling",
        "source": "MPD-1976"
      },
      "geometry": {
        "type": "Point",
        "coordinates": [
          77.2833,
          28.6667
        ]
      }
    },
    {
      "type": "Feature",
      "properties": {
        "basin": "Shahdara Basin",
        "drain_name": "Shahdara outfall drain",
        "seq_no": 26,
        "status": "Existing / Remodeling",
        "source": "MPD-1976"
      },
      "geometry": {
        "type": "Point",
        "coordinates": [
          77.2833,
          28.6667
        ]
      }
    },
    {
      "type": "Feature",
      "properties": {
        "basin": "Shahdara Basin",
        "drain_name": "Shahdara link drain",
        "seq_no": 27,
        "status": "Existing / Remodeling",
        "source": "MPD-1976"
      },
      "geometry": {
        "type": "Point",
        "coordinates": [
          77.2833,
          28.6667
        ]
      }
    },
    {
      "type": "Feature",
      "properties": {
        "basin": "Shahdara Basin",
        "drain_name": "Khichripur drain",
        "seq_no": 28,
        "status": "Existing / Remodeling",
        "source": "MPD-1976"
      },
      "geometry": {
        "type": "Point",
        "coordinates": [
          77.2833,
          28.6667
        ]
      }
    },
    {
      "type": "Feature",
      "properties": {
        "basin": "Shahdara Basin",
        "drain_name": "Karawal nagar drain",
        "seq_no": 29,
        "status": "Existing / Remodeling",
        "source": "MPD-1976"
      },
      "geometry": {
        "type": "Point",
        "coordinates": [
          77.2833,
          28.6667
        ]
      }
    },
    {
      "type": "Feature",
      "properties": {
        "basin": "Shahdara Basin",
        "drain_name": "Escape Drain No.I",
        "seq_no": 30,
        "status": "Existing / Remodeling",
        "source": "MPD-1976"
      },
      "geometry": {
        "type": "Point",
        "coordinates": [
          77.2833,
          28.6667
        ]
      }
    },
    {
      "type": "Feature",
      "properties": {
        "basin": "Shahdara Basin",
        "drain_name": "Escape Drain No.II",
        "seq_no": 31,
        "status": "Existing / Remodeling",
        "source": "MPD-1976"
      },
      "geometry": {
        "type": "Point",
        "coordinates": [
          77.2833,
          28.6667
        ]
      }
    },
    {
      "type": "Feature",
      "properties": {
        "basin": "Shahdara Basin",
        "drain_name": "Bund Drain",
        "seq_no": 32,
        "status": "Existing / Remodeling",
        "source": "MPD-1976"
      },
      "geometry": {
        "type": "Point",
        "coordinates": [
          77.2833,
          28.6667
        ]
      }
    },
    {
      "type": "Feature",
      "properties": {
        "basin": "Shahdara Basin",
        "drain_name": "Beharipur drain",
        "seq_no": 33,
        "status": "Existing / Remodeling",
        "source": "MPD-1976"
      },
      "geometry": {
        "type": "Point",
        "coordinates": [
          77.2833,
          28.6667
        ]
      }
    },
    {
      "type": "Feature",
      "properties": {
        "basin": "Shahdara Basin",
        "drain_name": "Ghazipur drain",
        "seq_no": 34,
        "status": "Existing / Remodeling",
        "source": "MPD-1976"
      },
      "geometry": {
        "type": "Point",
        "coordinates": [
          77.2833,
          28.6667
        ]
      }
    },
    {
      "type": "Feature",
      "properties": {
        "basin": "Alipur Basin",
        "drain_name": "Bawana Escape",
        "seq_no": 1,
        "status": "Existing / Remodeling",
        "source": "MPD-1976"
      },
      "geometry": {
        "type": "Point",
        "coordinates": [
          77.1333,
          28.8
        ]
      }
    },
    {
      "type": "Feature",
      "properties": {
        "basin": "Alipur Basin",
        "drain_name": "Ghoga link drain",
        "seq_no": 2,
        "status": "Existing / Remodeling",
        "source": "MPD-1976"
      },
      "geometry": {
        "type": "Point",
        "coordinates": [
          77.1333,
          28.8
        ]
      }
    },
    {
      "type": "Feature",
      "properties": {
        "basin": "Alipur Basin",
        "drain_name": "Sanoth link drain",
        "seq_no": 3,
        "status": "Existing / Remodeling",
        "source": "MPD-1976"
      },
      "geometry": {
        "type": "Point",
        "coordinates": [
          77.1333,
          28.8
        ]
      }
    },
    {
      "type": "Feature",
      "properties": {
        "basin": "Alipur Basin",
        "drain_name": "Narela Link drain No.II",
        "seq_no": 4,
        "status": "Existing / Remodeling",
        "source": "MPD-1976"
      },
      "geometry": {
        "type": "Point",
        "coordinates": [
          77.1333,
          28.8
        ]
      }
    },
    {
      "type": "Feature",
      "properties": {
        "basin": "Alipur Basin",
        "drain_name": "Naya Bans link drain",
        "seq_no": 5,
        "status": "Existing / Remodeling",
        "source": "MPD-1976"
      },
      "geometry": {
        "type": "Point",
        "coordinates": [
          77.1333,
          28.8
        ]
      }
    },
    {
      "type": "Feature",
      "properties": {
        "basin": "Alipur Basin",
        "drain_name": "Khera Khurd link drain",
        "seq_no": 6,
        "status": "Existing / Remodeling",
        "source": "MPD-1976"
      },
      "geometry": {
        "type": "Point",
        "coordinates": [
          77.1333,
          28.8
        ]
      }
    },
    {
      "type": "Feature",
      "properties": {
        "basin": "Alipur Basin",
        "drain_name": "Khera Kalan link drain",
        "seq_no": 7,
        "status": "Existing / Remodeling",
        "source": "MPD-1976"
      },
      "geometry": {
        "type": "Point",
        "coordinates": [
          77.1333,
          28.8
        ]
      }
    },
    {
      "type": "Feature",
      "properties": {
        "basin": "Alipur Basin",
        "drain_name": "Alipur link drain",
        "seq_no": 8,
        "status": "Existing / Remodeling",
        "source": "MPD-1976"
      },
      "geometry": {
        "type": "Point",
        "coordinates": [
          77.1333,
          28.8
        ]
      }
    },
    {
      "type": "Feature",
      "properties": {
        "basin": "Alipur Basin",
        "drain_name": "Drain No.6",
        "seq_no": 9,
        "status": "Existing / Remodeling",
        "source": "MPD-1976"
      },
      "geometry": {
        "type": "Point",
        "coordinates": [
          77.1333,
          28.8
        ]
      }
    },
    {
      "type": "Feature",
      "properties": {
        "basin": "Alipur Basin",
        "drain_name": "Bankner Link drain",
        "seq_no": 10,
        "status": "Existing / Remodeling",
        "source": "MPD-1976"
      },
      "geometry": {
        "type": "Point",
        "coordinates": [
          77.1333,
          28.8
        ]
      }
    },
    {
      "type": "Feature",
      "properties": {
        "basin": "Alipur Basin",
        "drain_name": "Narela Link drain No.1",
        "seq_no": 11,
        "status": "Existing / Remodeling",
        "source": "MPD-1976"
      },
      "geometry": {
        "type": "Point",
        "coordinates": [
          77.1333,
          28.8
        ]
      }
    },
    {
      "type": "Feature",
      "properties": {
        "basin": "Alipur Basin",
        "drain_name": "Tikri Khurd link drain",
        "seq_no": 12,
        "status": "Existing / Remodeling",
        "source": "MPD-1976"
      },
      "geometry": {
        "type": "Point",
        "coordinates": [
          77.1333,
          28.8
        ]
      }
    },
    {
      "type": "Feature",
      "properties": {
        "basin": "Alipur Basin",
        "drain_name": "Hameedpur drain",
        "seq_no": 13,
        "status": "Existing / Remodeling",
        "source": "MPD-1976"
      },
      "geometry": {
        "type": "Point",
        "coordinates": [
          77.1333,
          28.8
        ]
      }
    },
    {
      "type": "Feature",
      "properties": {
        "basin": "Alipur Basin",
        "drain_name": "Burari Creek",
        "seq_no": 14,
        "status": "Existing / Remodeling",
        "source": "MPD-1976"
      },
      "geometry": {
        "type": "Point",
        "coordinates": [
          77.1333,
          28.8
        ]
      }
    },
    {
      "type": "Feature",
      "properties": {
        "basin": "Alipur Basin",
        "drain_name": "Shahalam drain",
        "seq_no": 15,
        "status": "Existing / Remodeling",
        "source": "MPD-1976"
      },
      "geometry": {
        "type": "Point",
        "coordinates": [
          77.1333,
          28.8
        ]
      }
    },
    {
      "type": "Feature",
      "properties": {
        "basin": "Alipur Basin",
        "drain_name": "Burari Drain No.1",
        "seq_no": 16,
        "status": "Existing / Remodeling",
        "source": "MPD-1976"
      },
      "geometry": {
        "type": "Point",
        "coordinates": [
          77.1333,
          28.8
        ]
      }
    },
    {
      "type": "Feature",
      "properties": {
        "basin": "Khanjhawala Basin",
        "drain_name": "Ladpur pond Link Drain",
        "seq_no": 1,
        "status": "Existing / Remodeling",
        "source": "MPD-1976"
      },
      "geometry": {
        "type": "Point",
        "coordinates": [
          77.0167,
          28.75
        ]
      }
    },
    {
      "type": "Feature",
      "properties": {
        "basin": "Khanjhawala Basin",
        "drain_name": "Rithala sub-link drain",
        "seq_no": 2,
        "status": "Existing / Remodeling",
        "source": "MPD-1976"
      },
      "geometry": {
        "type": "Point",
        "coordinates": [
          77.0167,
          28.75
        ]
      }
    },
    {
      "type": "Feature",
      "properties": {
        "basin": "Khanjhawala Basin",
        "drain_name": "Rithala link drain",
        "seq_no": 3,
        "status": "Existing / Remodeling",
        "source": "MPD-1976"
      },
      "geometry": {
        "type": "Point",
        "coordinates": [
          77.0167,
          28.75
        ]
      }
    },
    {
      "type": "Feature",
      "properties": {
        "basin": "Khanjhawala Basin",
        "drain_name": "Mundka Pond link drain",
        "seq_no": 4,
        "status": "Existing / Remodeling",
        "source": "MPD-1976"
      },
      "geometry": {
        "type": "Point",
        "coordinates": [
          77.0167,
          28.75
        ]
      }
    },
    {
      "type": "Feature",
      "properties": {
        "basin": "Khanjhawala Basin",
        "drain_name": "Rithala pond link drain",
        "seq_no": 5,
        "status": "Existing / Remodeling",
        "source": "MPD-1976"
      },
      "geometry": {
        "type": "Point",
        "coordinates": [
          77.0167,
          28.75
        ]
      }
    },
    {
      "type": "Feature",
      "properties": {
        "basin": "Khanjhawala Basin",
        "drain_name": "Bakarwala Pond Link Drain",
        "seq_no": 6,
        "status": "Existing / Remodeling",
        "source": "MPD-1976"
      },
      "geometry": {
        "type": "Point",
        "coordinates": [
          77.0167,
          28.75
        ]
      }
    },
    {
      "type": "Feature",
      "properties": {
        "basin": "Khanjhawala Basin",
        "drain_name": "Kamrudin Nagar pond link drain",
        "seq_no": 7,
        "status": "Existing / Remodeling",
        "source": "MPD-1976"
      },
      "geometry": {
        "type": "Point",
        "coordinates": [
          77.0167,
          28.75
        ]
      }
    },
    {
      "type": "Feature",
      "properties": {
        "basin": "Khanjhawala Basin",
        "drain_name": "Budhanpur pond link drain",
        "seq_no": 8,
        "status": "Existing / Remodeling",
        "source": "MPD-1976"
      },
      "geometry": {
        "type": "Point",
        "coordinates": [
          77.0167,
          28.75
        ]
      }
    },
    {
      "type": "Feature",
      "properties": {
        "basin": "Khanjhawala Basin",
        "drain_name": "Auchandi minor link drain",
        "seq_no": 9,
        "status": "Existing / Remodeling",
        "source": "MPD-1976"
      },
      "geometry": {
        "type": "Point",
        "coordinates": [
          77.0167,
          28.75
        ]
      }
    },
    {
      "type": "Feature",
      "properties": {
        "basin": "Khanjhawala Basin",
        "drain_name": "Mungeshpur drain",
        "seq_no": 10,
        "status": "Existing / Remodeling",
        "source": "MPD-1976"
      },
      "geometry": {
        "type": "Point",
        "coordinates": [
          77.0167,
          28.75
        ]
      }
    },
    {
      "type": "Feature",
      "properties": {
        "basin": "Khanjhawala Basin",
        "drain_name": "Katewara link drain",
        "seq_no": 11,
        "status": "Existing / Remodeling",
        "source": "MPD-1976"
      },
      "geometry": {
        "type": "Point",
        "coordinates": [
          77.0167,
          28.75
        ]
      }
    },
    {
      "type": "Feature",
      "properties": {
        "basin": "Khanjhawala Basin",
        "drain_name": "Mungeshpur link drain",
        "seq_no": 12,
        "status": "Existing / Remodeling",
        "source": "MPD-1976"
      },
      "geometry": {
        "type": "Point",
        "coordinates": [
          77.0167,
          28.75
        ]
      }
    },
    {
      "type": "Feature",
      "properties": {
        "basin": "Khanjhawala Basin",
        "drain_name": "Madanpur drain",
        "seq_no": 13,
        "status": "Existing / Remodeling",
        "source": "MPD-1976"
      },
      "geometry": {
        "type": "Point",
        "coordinates": [
          77.0167,
          28.75
        ]
      }
    },
    {
      "type": "Feature",
      "properties": {
        "basin": "Khanjhawala Basin",
        "drain_name": "Sultanpur drain",
        "seq_no": 14,
        "status": "Existing / Remodeling",
        "source": "MPD-1976"
      },
      "geometry": {
        "type": "Point",
        "coordinates": [
          77.0167,
          28.75
        ]
      }
    },
    {
      "type": "Feature",
      "properties": {
        "basin": "Khanjhawala Basin",
        "drain_name": "Mohammadpur Magri link drain",
        "seq_no": 15,
        "status": "Existing / Remodeling",
        "source": "MPD-1976"
      },
      "geometry": {
        "type": "Point",
        "coordinates": [
          77.0167,
          28.75
        ]
      }
    },
    {
      "type": "Feature",
      "properties": {
        "basin": "Khanjhawala Basin",
        "drain_name": "Gheera link drain",
        "seq_no": 16,
        "status": "Existing / Remodeling",
        "source": "MPD-1976"
      },
      "geometry": {
        "type": "Point",
        "coordinates": [
          77.0167,
          28.75
        ]
      }
    },
    {
      "type": "Feature",
      "properties": {
        "basin": "Khanjhawala Basin",
        "drain_name": "Rasulpur link drain",
        "seq_no": 17,
        "status": "Existing / Remodeling",
        "source": "MPD-1976"
      },
      "geometry": {
        "type": "Point",
        "coordinates": [
          77.0167,
          28.75
        ]
      }
    },
    {
      "type": "Feature",
      "properties": {
        "basin": "Khanjhawala Basin",
        "drain_name": "Rani Khera Link drain",
        "seq_no": 18,
        "status": "Existing / Remodeling",
        "source": "MPD-1976"
      },
      "geometry": {
        "type": "Point",
        "coordinates": [
          77.0167,
          28.75
        ]
      }
    },
    {
      "type": "Feature",
      "properties": {
        "basin": "Khanjhawala Basin",
        "drain_name": "Bazidpur drain",
        "seq_no": 19,
        "status": "Existing / Remodeling",
        "source": "MPD-1976"
      },
      "geometry": {
        "type": "Point",
        "coordinates": [
          77.0167,
          28.75
        ]
      }
    },
    {
      "type": "Feature",
      "properties": {
        "basin": "Khanjhawala Basin",
        "drain_name": "Jatkhar link drain",
        "seq_no": 20,
        "status": "Existing / Remodeling",
        "source": "MPD-1976"
      },
      "geometry": {
        "type": "Point",
        "coordinates": [
          77.0167,
          28.75
        ]
      }
    },
    {
      "type": "Feature",
      "properties": {
        "basin": "Khanjhawala Basin",
        "drain_name": "Bawana drain",
        "seq_no": 21,
        "status": "Existing / Remodeling",
        "source": "MPD-1976"
      },
      "geometry": {
        "type": "Point",
        "coordinates": [
          77.0167,
          28.75
        ]
      }
    },
    {
      "type": "Feature",
      "properties": {
        "basin": "Khanjhawala Basin",
        "drain_name": "Bawana Jheel link drain",
        "seq_no": 22,
        "status": "Existing / Remodeling",
        "source": "MPD-1976"
      },
      "geometry": {
        "type": "Point",
        "coordinates": [
          77.0167,
          28.75
        ]
      }
    },
    {
      "type": "Feature",
      "properties": {
        "basin": "Khanjhawala Basin",
        "drain_name": "Nangal Thakran drain",
        "seq_no": 23,
        "status": "Existing / Remodeling",
        "source": "MPD-1976"
      },
      "geometry": {
        "type": "Point",
        "coordinates": [
          77.0167,
          28.75
        ]
      }
    },
    {
      "type": "Feature",
      "properties": {
        "basin": "Khanjhawala Basin",
        "drain_name": "Chandpur link drain",
        "seq_no": 24,
        "status": "Existing / Remodeling",
        "source": "MPD-1976"
      },
      "geometry": {
        "type": "Point",
        "coordinates": [
          77.0167,
          28.75
        ]
      }
    },
    {
      "type": "Feature",
      "properties": {
        "basin": "Khanjhawala Basin",
        "drain_name": "Karari Suleman Nagar drain",
        "seq_no": 25,
        "status": "Existing / Remodeling",
        "source": "MPD-1976"
      },
      "geometry": {
        "type": "Point",
        "coordinates": [
          77.0167,
          28.75
        ]
      }
    },
    {
      "type": "Feature",
      "properties": {
        "basin": "Khanjhawala Basin",
        "drain_name": "Mubarkpur link drain",
        "seq_no": 26,
        "status": "Existing / Remodeling",
        "source": "MPD-1976"
      },
      "geometry": {
        "type": "Point",
        "coordinates": [
          77.0167,
          28.75
        ]
      }
    },
    {
      "type": "Feature",
      "properties": {
        "basin": "Khanjhawala Basin",
        "drain_name": "Nithari link drain",
        "seq_no": 27,
        "status": "Existing / Remodeling",
        "source": "MPD-1976"
      },
      "geometry": {
        "type": "Point",
        "coordinates": [
          77.0167,
          28.75
        ]
      }
    },
    {
      "type": "Feature",
      "properties": {
        "basin": "Khanjhawala Basin",
        "drain_name": "Begumpur",
        "seq_no": 28,
        "status": "Existing / Remodeling",
        "source": "MPD-1976"
      },
      "geometry": {
        "type": "Point",
        "coordinates": [
          77.0167,
          28.75
        ]
      }
    },
    {
      "type": "Feature",
      "properties": {
        "basin": "Khanjhawala Basin",
        "drain_name": "Nangloi drain",
        "seq_no": 29,
        "status": "Existing / Remodeling",
        "source": "MPD-1976"
      },
      "geometry": {
        "type": "Point",
        "coordinates": [
          77.0167,
          28.75
        ]
      }
    },
    {
      "type": "Feature",
      "properties": {
        "basin": "Khanjhawala Basin",
        "drain_name": "Sahibabad Daulatpur link drain",
        "seq_no": 30,
        "status": "Existing / Remodeling",
        "source": "MPD-1976"
      },
      "geometry": {
        "type": "Point",
        "coordinates": [
          77.0167,
          28.75
        ]
      }
    },
    {
      "type": "Feature",
      "properties": {
        "basin": "Khanjhawala Basin",
        "drain_name": "Mangolepur link drain",
        "seq_no": 31,
        "status": "Existing / Remodeling",
        "source": "MPD-1976"
      },
      "geometry": {
        "type": "Point",
        "coordinates": [
          77.0167,
          28.75
        ]
      }
    },
    {
      "type": "Feature",
      "properties": {
        "basin": "Khanjhawala Basin",
        "drain_name": "Naharpur link drain",
        "seq_no": 32,
        "status": "Existing / Remodeling",
        "source": "MPD-1976"
      },
      "geometry": {
        "type": "Point",
        "coordinates": [
          77.0167,
          28.75
        ]
      }
    },
    {
      "type": "Feature",
      "properties": {
        "basin": "Khanjhawala Basin",
        "drain_name": "Puth Kalan link drain",
        "seq_no": 33,
        "status": "Existing / Remodeling",
        "source": "MPD-1976"
      },
      "geometry": {
        "type": "Point",
        "coordinates": [
          77.0167,
          28.75
        ]
      }
    },
    {
      "type": "Feature",
      "properties": {
        "basin": "Khanjhawala Basin",
        "drain_name": "Mundka link drain",
        "seq_no": 34,
        "status": "Existing / Remodeling",
        "source": "MPD-1976"
      },
      "geometry": {
        "type": "Point",
        "coordinates": [
          77.0167,
          28.75
        ]
      }
    },
    {
      "type": "Feature",
      "properties": {
        "basin": "Najafgarh Basin",
        "drain_name": "Bagraula drain",
        "seq_no": 1,
        "status": "Existing / Remodeling",
        "source": "MPD-1976"
      },
      "geometry": {
        "type": "Point",
        "coordinates": [
          76.98,
          28.6092
        ]
      }
    },
    {
      "type": "Feature",
      "properties": {
        "basin": "Najafgarh Basin",
        "drain_name": "Barthal drain",
        "seq_no": 2,
        "status": "Existing / Remodeling",
        "source": "MPD-1976"
      },
      "geometry": {
        "type": "Point",
        "coordinates": [
          76.98,
          28.6092
        ]
      }
    },
    {
      "type": "Feature",
      "properties": {
        "basin": "Najafgarh Basin",
        "drain_name": "Shahbad drain",
        "seq_no": 3,
        "status": "Existing / Remodeling",
        "source": "MPD-1976"
      },
      "geometry": {
        "type": "Point",
        "coordinates": [
          76.98,
          28.6092
        ]
      }
    },
    {
      "type": "Feature",
      "properties": {
        "basin": "Najafgarh Basin",
        "drain_name": "Bijwason link drain",
        "seq_no": 4,
        "status": "Existing / Remodeling",
        "source": "MPD-1976"
      },
      "geometry": {
        "type": "Point",
        "coordinates": [
          76.98,
          28.6092
        ]
      }
    },
    {
      "type": "Feature",
      "properties": {
        "basin": "Najafgarh Basin",
        "drain_name": "Najafgarh Pond drain",
        "seq_no": 5,
        "status": "Existing / Remodeling",
        "source": "MPD-1976"
      },
      "geometry": {
        "type": "Point",
        "coordinates": [
          76.98,
          28.6092
        ]
      }
    },
    {
      "type": "Feature",
      "properties": {
        "basin": "Najafgarh Basin",
        "drain_name": "Chhawla Link drain",
        "seq_no": 6,
        "status": "Existing / Remodeling",
        "source": "MPD-1976"
      },
      "geometry": {
        "type": "Point",
        "coordinates": [
          76.98,
          28.6092
        ]
      }
    },
    {
      "type": "Feature",
      "properties": {
        "basin": "Najafgarh Basin",
        "drain_name": "Bijwasan pond link drain",
        "seq_no": 7,
        "status": "Existing / Remodeling",
        "source": "MPD-1976"
      },
      "geometry": {
        "type": "Point",
        "coordinates": [
          76.98,
          28.6092
        ]
      }
    },
    {
      "type": "Feature",
      "properties": {
        "basin": "Najafgarh Basin",
        "drain_name": "Malikpur pond link drain",
        "seq_no": 8,
        "status": "Existing / Remodeling",
        "source": "MPD-1976"
      },
      "geometry": {
        "type": "Point",
        "coordinates": [
          76.98,
          28.6092
        ]
      }
    },
    {
      "type": "Feature",
      "properties": {
        "basin": "Najafgarh Basin",
        "drain_name": "Sagarpur link drain",
        "seq_no": 9,
        "status": "Existing / Remodeling",
        "source": "MPD-1976"
      },
      "geometry": {
        "type": "Point",
        "coordinates": [
          76.98,
          28.6092
        ]
      }
    },
    {
      "type": "Feature",
      "properties": {
        "basin": "Najafgarh Basin",
        "drain_name": "Nasirpur Pond link drain",
        "seq_no": 10,
        "status": "Existing / Remodeling",
        "source": "MPD-1976"
      },
      "geometry": {
        "type": "Point",
        "coordinates": [
          76.98,
          28.6092
        ]
      }
    },
    {
      "type": "Feature",
      "properties": {
        "basin": "Najafgarh Basin",
        "drain_name": "Kair link drain",
        "seq_no": 11,
        "status": "Existing / Remodeling",
        "source": "MPD-1976"
      },
      "geometry": {
        "type": "Point",
        "coordinates": [
          76.98,
          28.6092
        ]
      }
    },
    {
      "type": "Feature",
      "properties": {
        "basin": "Najafgarh Basin",
        "drain_name": "Mundela link drain",
        "seq_no": 12,
        "status": "Existing / Remodeling",
        "source": "MPD-1976"
      },
      "geometry": {
        "type": "Point",
        "coordinates": [
          76.98,
          28.6092
        ]
      }
    },
    {
      "type": "Feature",
      "properties": {
        "basin": "Najafgarh Basin",
        "drain_name": "Dhansa Outfall channel",
        "seq_no": 13,
        "status": "Existing / Remodeling",
        "source": "MPD-1976"
      },
      "geometry": {
        "type": "Point",
        "coordinates": [
          76.98,
          28.6092
        ]
      }
    },
    {
      "type": "Feature",
      "properties": {
        "basin": "Najafgarh Basin",
        "drain_name": "Link drain through Najafgarh jheel",
        "seq_no": 14,
        "status": "Existing / Remodeling",
        "source": "MPD-1976"
      },
      "geometry": {
        "type": "Point",
        "coordinates": [
          76.98,
          28.6092
        ]
      }
    },
    {
      "type": "Feature",
      "properties": {
        "basin": "Najafgarh Basin",
        "drain_name": "Najafgarh drain upto RD.98000",
        "seq_no": 15,
        "status": "Existing / Remodeling",
        "source": "MPD-1976"
      },
      "geometry": {
        "type": "Point",
        "coordinates": [
          76.98,
          28.6092
        ]
      }
    },
    {
      "type": "Feature",
      "properties": {
        "basin": "Najafgarh Basin",
        "drain_name": "Najafgarh Drain from Basaidarapur to Bharat nagar Bridge",
        "seq_no": 16,
        "status": "Existing / Remodeling",
        "source": "MPD-1976"
      },
      "geometry": {
        "type": "Point",
        "coordinates": [
          76.98,
          28.6092
        ]
      }
    },
    {
      "type": "Feature",
      "properties": {
        "basin": "Najafgarh Basin",
        "drain_name": "Najafgarh Drain from Bharat Nagar to Tail Regulator",
        "seq_no": 17,
        "status": "Existing / Remodeling",
        "source": "MPD-1976"
      },
      "geometry": {
        "type": "Point",
        "coordinates": [
          76.98,
          28.6092
        ]
      }
    },
    {
      "type": "Feature",
      "properties": {
        "basin": "Najafgarh Basin",
        "drain_name": "Mungeshpur drain",
        "seq_no": 18,
        "status": "Existing / Remodeling",
        "source": "MPD-1976"
      },
      "geometry": {
        "type": "Point",
        "coordinates": [
          76.98,
          28.6092
        ]
      }
    },
    {
      "type": "Feature",
      "properties": {
        "basin": "Najafgarh Basin",
        "drain_name": "Palam drain",
        "seq_no": 19,
        "status": "Existing / Remodeling",
        "source": "MPD-1976"
      },
      "geometry": {
        "type": "Point",
        "coordinates": [
          76.98,
          28.6092
        ]
      }
    },
    {
      "type": "Feature",
      "properties": {
        "basin": "Najafgarh Basin",
        "drain_name": "Palam link drain",
        "seq_no": 20,
        "status": "Existing / Remodeling",
        "source": "MPD-1976"
      },
      "geometry": {
        "type": "Point",
        "coordinates": [
          76.98,
          28.6092
        ]
      }
    },
    {
      "type": "Feature",
      "properties": {
        "basin": "Najafgarh Basin",
        "drain_name": "Palam pond link drain",
        "seq_no": 21,
        "status": "Existing / Remodeling",
        "source": "MPD-1976"
      },
      "geometry": {
        "type": "Point",
        "coordinates": [
          76.98,
          28.6092
        ]
      }
    },
    {
      "type": "Feature",
      "properties": {
        "basin": "Najafgarh Basin",
        "drain_name": "Nasirpur link drain",
        "seq_no": 22,
        "status": "Existing / Remodeling",
        "source": "MPD-1976"
      },
      "geometry": {
        "type": "Point",
        "coordinates": [
          76.98,
          28.6092
        ]
      }
    },
    {
      "type": "Feature",
      "properties": {
        "basin": "MCD Drains - Najafgarh Drain",
        "drain_name": "Reach Between Tilak Nagar Drainoutfall to Bharat nagar Bridge",
        "seq_no": 1,
        "status": "Existing / Remodeling",
        "source": "MPD-1976"
      },
      "geometry": {
        "type": "Point",
        "coordinates": [
          76.98,
          28.6092
        ]
      }
    },
    {
      "type": "Feature",
      "properties": {
        "basin": "MCD Drains - Najafgarh Drain",
        "drain_name": "Reach From Bharat Nagar Bridge upto outfall into yamuna",
        "seq_no": 2,
        "status": "Existing / Remodeling",
        "source": "MPD-1976"
      },
      "geometry": {
        "type": "Point",
        "coordinates": [
          76.98,
          28.6092
        ]
      }
    },
    {
      "type": "Feature",
      "properties": {
        "basin": "MCD Drains - Karol Bagh Zone",
        "drain_name": "Shakurbasti Drain",
        "seq_no": 1,
        "status": "Existing / Remodeling",
        "source": "MPD-1976"
      },
      "geometry": {
        "type": "Point",
        "coordinates": [
          77.1909,
          28.6519
        ]
      }
    },
    {
      "type": "Feature",
      "properties": {
        "basin": "MCD Drains - Karol Bagh Zone",
        "drain_name": "Kanhaiya Nagar Drain",
        "seq_no": 2,
        "status": "Existing / Remodeling",
        "source": "MPD-1976"
      },
      "geometry": {
        "type": "Point",
        "coordinates": [
          77.1909,
          28.6519
        ]
      }
    },
    {
      "type": "Feature",
      "properties": {
        "basin": "MCD Drains - Karol Bagh Zone",
        "drain_name": "Ranjit Nagar Darin",
        "seq_no": 3,
        "status": "Existing / Remodeling",
        "source": "MPD-1976"
      },
      "geometry": {
        "type": "Point",
        "coordinates": [
          77.1909,
          28.6519
        ]
      }
    },
    {
      "type": "Feature",
      "properties": {
        "basin": "MCD Drains - Karol Bagh Zone",
        "drain_name": "Baljeet Nagar Drain",
        "seq_no": 4,
        "status": "Existing / Remodeling",
        "source": "MPD-1976"
      },
      "geometry": {
        "type": "Point",
        "coordinates": [
          77.1909,
          28.6519
        ]
      }
    },
    {
      "type": "Feature",
      "properties": {
        "basin": "MCD Drains - Karol Bagh Zone",
        "drain_name": "Patel Road Drain",
        "seq_no": 5,
        "status": "Existing / Remodeling",
        "source": "MPD-1976"
      },
      "geometry": {
        "type": "Point",
        "coordinates": [
          77.1909,
          28.6519
        ]
      }
    },
    {
      "type": "Feature",
      "properties": {
        "basin": "MCD Drains - Karol Bagh Zone",
        "drain_name": "D.T.U Nallah",
        "seq_no": 6,
        "status": "Existing / Remodeling",
        "source": "MPD-1976"
      },
      "geometry": {
        "type": "Point",
        "coordinates": [
          77.1909,
          28.6519
        ]
      }
    },
    {
      "type": "Feature",
      "properties": {
        "basin": "MCD Drains - Karol Bagh Zone",
        "drain_name": "Industrial Area Drain",
        "seq_no": 7,
        "status": "Existing / Remodeling",
        "source": "MPD-1976"
      },
      "geometry": {
        "type": "Point",
        "coordinates": [
          77.1909,
          28.6519
        ]
      }
    },
    {
      "type": "Feature",
      "properties": {
        "basin": "MCD Drains - Karol Bagh Zone",
        "drain_name": "Subhadra Colony Drain",
        "seq_no": 8,
        "status": "Existing / Remodeling",
        "source": "MPD-1976"
      },
      "geometry": {
        "type": "Point",
        "coordinates": [
          77.1909,
          28.6519
        ]
      }
    },
    {
      "type": "Feature",
      "properties": {
        "basin": "MCD Drains - Karol Bagh Zone",
        "drain_name": "J.J Colony Drain",
        "seq_no": 9,
        "status": "Existing / Remodeling",
        "source": "MPD-1976"
      },
      "geometry": {
        "type": "Point",
        "coordinates": [
          77.1909,
          28.6519
        ]
      }
    },
    {
      "type": "Feature",
      "properties": {
        "basin": "MCD Drains - Karol Bagh Zone",
        "drain_name": "Daryai Nallah",
        "seq_no": 10,
        "status": "Existing / Remodeling",
        "source": "MPD-1976"
      },
      "geometry": {
        "type": "Point",
        "coordinates": [
          77.1909,
          28.6519
        ]
      }
    },
    {
      "type": "Feature",
      "properties": {
        "basin": "MCD Drains - West Zone",
        "drain_name": "Rajouri garden Drain",
        "seq_no": 1,
        "status": "Existing / Remodeling",
        "source": "MPD-1976"
      },
      "geometry": {
        "type": "Point",
        "coordinates": [
          77.1174,
          28.6692
        ]
      }
    },
    {
      "type": "Feature",
      "properties": {
        "basin": "MCD Drains - West Zone",
        "drain_name": "Ring Road Drain",
        "seq_no": 2,
        "status": "Existing / Remodeling",
        "source": "MPD-1976"
      },
      "geometry": {
        "type": "Point",
        "coordinates": [
          77.1174,
          28.6692
        ]
      }
    },
    {
      "type": "Feature",
      "properties": {
        "basin": "MCD Drains - West Zone",
        "drain_name": "Moti Nagar Drain",
        "seq_no": 3,
        "status": "Existing / Remodeling",
        "source": "MPD-1976"
      },
      "geometry": {
        "type": "Point",
        "coordinates": [
          77.1174,
          28.6692
        ]
      }
    },
    {
      "type": "Feature",
      "properties": {
        "basin": "MCD Drains - West Zone",
        "drain_name": "Tatarpur Drain",
        "seq_no": 4,
        "status": "Existing / Remodeling",
        "source": "MPD-1976"
      },
      "geometry": {
        "type": "Point",
        "coordinates": [
          77.1174,
          28.6692
        ]
      }
    },
    {
      "type": "Feature",
      "properties": {
        "basin": "MCD Drains - West Zone",
        "drain_name": "Ramesh Nagar Drain",
        "seq_no": 5,
        "status": "Existing / Remodeling",
        "source": "MPD-1976"
      },
      "geometry": {
        "type": "Point",
        "coordinates": [
          77.1174,
          28.6692
        ]
      }
    },
    {
      "type": "Feature",
      "properties": {
        "basin": "MCD Drains - West Zone",
        "drain_name": "Jail Road Drain",
        "seq_no": 6,
        "status": "Existing / Remodeling",
        "source": "MPD-1976"
      },
      "geometry": {
        "type": "Point",
        "coordinates": [
          77.1174,
          28.6692
        ]
      }
    },
    {
      "type": "Feature",
      "properties": {
        "basin": "MCD Drains - West Zone",
        "drain_name": "Shubash Nagar Drain",
        "seq_no": 7,
        "status": "Existing / Remodeling",
        "source": "MPD-1976"
      },
      "geometry": {
        "type": "Point",
        "coordinates": [
          77.1174,
          28.6692
        ]
      }
    },
    {
      "type": "Feature",
      "properties": {
        "basin": "MCD Drains - Civil Line Zone",
        "drain_name": "Khybar Pass Drain",
        "seq_no": 1,
        "status": "Existing / Remodeling",
        "source": "MPD-1976"
      },
      "geometry": {
        "type": "Point",
        "coordinates": [
          77.2217,
          28.6772
        ]
      }
    },
    {
      "type": "Feature",
      "properties": {
        "basin": "MCD Drains - Civil Line Zone",
        "drain_name": "Metclaft House Drain",
        "seq_no": 2,
        "status": "Existing / Remodeling",
        "source": "MPD-1976"
      },
      "geometry": {
        "type": "Point",
        "coordinates": [
          77.2217,
          28.6772
        ]
      }
    },
    {
      "type": "Feature",
      "properties": {
        "basin": "MCD Drains - Civil Line Zone",
        "drain_name": "Qudsia Bagh Drain",
        "seq_no": 3,
        "status": "Existing / Remodeling",
        "source": "MPD-1976"
      },
      "geometry": {
        "type": "Point",
        "coordinates": [
          77.2217,
          28.6772
        ]
      }
    },
    {
      "type": "Feature",
      "properties": {
        "basin": "MCD Drains - Civil Line Zone",
        "drain_name": "Mori Gate Drain",
        "seq_no": 4,
        "status": "Existing / Remodeling",
        "source": "MPD-1976"
      },
      "geometry": {
        "type": "Point",
        "coordinates": [
          77.2217,
          28.6772
        ]
      }
    },
    {
      "type": "Feature",
      "properties": {
        "basin": "MCD Drains - Civil Line Zone",
        "drain_name": "Tonga Stand Drain",
        "seq_no": 5,
        "status": "Existing / Remodeling",
        "source": "MPD-1976"
      },
      "geometry": {
        "type": "Point",
        "coordinates": [
          77.2217,
          28.6772
        ]
      }
    },
    {
      "type": "Feature",
      "properties": {
        "basin": "MCD Drains - Civil Line Zone",
        "drain_name": "Gurmandi Drain",
        "seq_no": 6,
        "status": "Existing / Remodeling",
        "source": "MPD-1976"
      },
      "geometry": {
        "type": "Point",
        "coordinates": [
          77.2217,
          28.6772
        ]
      }
    },
    {
      "type": "Feature",
      "properties": {
        "basin": "MCD Drains - Civil Line Zone",
        "drain_name": "Hansraj Drain",
        "seq_no": 7,
        "status": "Existing / Remodeling",
        "source": "MPD-1976"
      },
      "geometry": {
        "type": "Point",
        "coordinates": [
          77.2217,
          28.6772
        ]
      }
    },
    {
      "type": "Feature",
      "properties": {
        "basin": "MCD Drains - Civil Line Zone",
        "drain_name": "Mall Road Drain",
        "seq_no": 8,
        "status": "Existing / Remodeling",
        "source": "MPD-1976"
      },
      "geometry": {
        "type": "Point",
        "coordinates": [
          77.2217,
          28.6772
        ]
      }
    },
    {
      "type": "Feature",
      "properties": {
        "basin": "MCD Drains - Civil Line Zone",
        "drain_name": "Timarpur Drain",
        "seq_no": 9,
        "status": "Existing / Remodeling",
        "source": "MPD-1976"
      },
      "geometry": {
        "type": "Point",
        "coordinates": [
          77.2217,
          28.6772
        ]
      }
    },
    {
      "type": "Feature",
      "properties": {
        "basin": "MCD Drains - Civil Line Zone",
        "drain_name": "T.B Hospital Drain",
        "seq_no": 10,
        "status": "Existing / Remodeling",
        "source": "MPD-1976"
      },
      "geometry": {
        "type": "Point",
        "coordinates": [
          77.2217,
          28.6772
        ]
      }
    },
    {
      "type": "Feature",
      "properties": {
        "basin": "MCD Drains - City Zone",
        "drain_name": "Vijay Ghat Drain",
        "seq_no": 1,
        "status": "Existing / Remodeling",
        "source": "MPD-1976"
      },
      "geometry": {
        "type": "Point",
        "coordinates": [
          77.2311,
          28.6508
        ]
      }
    },
    {
      "type": "Feature",
      "properties": {
        "basin": "MCD Drains - City Zone",
        "drain_name": "Red Fort Drain",
        "seq_no": 2,
        "status": "Existing / Remodeling",
        "source": "MPD-1976"
      },
      "geometry": {
        "type": "Point",
        "coordinates": [
          77.2311,
          28.6508
        ]
      }
    },
    {
      "type": "Feature",
      "properties": {
        "basin": "MCD Drains - City Zone",
        "drain_name": "Civil Military Drain",
        "seq_no": 3,
        "status": "Existing / Remodeling",
        "source": "MPD-1976"
      },
      "geometry": {
        "type": "Point",
        "coordinates": [
          77.2311,
          28.6508
        ]
      }
    },
    {
      "type": "Feature",
      "properties": {
        "basin": "MCD Drains - City Zone",
        "drain_name": "Delhi Gate Drain",
        "seq_no": 4,
        "status": "Existing / Remodeling",
        "source": "MPD-1976"
      },
      "geometry": {
        "type": "Point",
        "coordinates": [
          77.2311,
          28.6508
        ]
      }
    },
    {
      "type": "Feature",
      "properties": {
        "basin": "MCD Drains - City Zone",
        "drain_name": "Sen Nursing Home Nallah No. 12",
        "seq_no": 5,
        "status": "Existing / Remodeling",
        "source": "MPD-1976"
      },
      "geometry": {
        "type": "Point",
        "coordinates": [
          77.2311,
          28.6508
        ]
      }
    },
    {
      "type": "Feature",
      "properties": {
        "basin": "MCD Drains - City Zone",
        "drain_name": "Nalla No. 12 A",
        "seq_no": 6,
        "status": "Existing / Remodeling",
        "source": "MPD-1976"
      },
      "geometry": {
        "type": "Point",
        "coordinates": [
          77.2311,
          28.6508
        ]
      }
    },
    {
      "type": "Feature",
      "properties": {
        "basin": "MCD Drains - City Zone",
        "drain_name": "Drain No. 14",
        "seq_no": 7,
        "status": "Existing / Remodeling",
        "source": "MPD-1976"
      },
      "geometry": {
        "type": "Point",
        "coordinates": [
          77.2311,
          28.6508
        ]
      }
    },
    {
      "type": "Feature",
      "properties": {
        "basin": "MCD Drains - South Zone",
        "drain_name": "Chirag Delhi Drain",
        "seq_no": 1,
        "status": "Existing / Remodeling",
        "source": "MPD-1976"
      },
      "geometry": {
        "type": "Point",
        "coordinates": [
          77.2,
          28.5433
        ]
      }
    },
    {
      "type": "Feature",
      "properties": {
        "basin": "MCD Drains - South Zone",
        "drain_name": "Andrews ganj Drain",
        "seq_no": 2,
        "status": "Existing / Remodeling",
        "source": "MPD-1976"
      },
      "geometry": {
        "type": "Point",
        "coordinates": [
          77.2,
          28.5433
        ]
      }
    },
    {
      "type": "Feature",
      "properties": {
        "basin": "MCD Drains - South Zone",
        "drain_name": "Malaviya Nagar Drain",
        "seq_no": 3,
        "status": "Existing / Remodeling",
        "source": "MPD-1976"
      },
      "geometry": {
        "type": "Point",
        "coordinates": [
          77.2,
          28.5433
        ]
      }
    },
    {
      "type": "Feature",
      "properties": {
        "basin": "MCD Drains - South Zone",
        "drain_name": "Greater Kailash Drain",
        "seq_no": 4,
        "status": "Existing / Remodeling",
        "source": "MPD-1976"
      },
      "geometry": {
        "type": "Point",
        "coordinates": [
          77.2,
          28.5433
        ]
      }
    },
    {
      "type": "Feature",
      "properties": {
        "basin": "MCD Drains - South Zone",
        "drain_name": "Naoroji Nagar Drain",
        "seq_no": 5,
        "status": "Existing / Remodeling",
        "source": "MPD-1976"
      },
      "geometry": {
        "type": "Point",
        "coordinates": [
          77.2,
          28.5433
        ]
      }
    },
    {
      "type": "Feature",
      "properties": {
        "basin": "MCD Drains - South Zone",
        "drain_name": "Kalka ji Drain",
        "seq_no": 6,
        "status": "Existing / Remodeling",
        "source": "MPD-1976"
      },
      "geometry": {
        "type": "Point",
        "coordinates": [
          77.2,
          28.5433
        ]
      }
    },
    {
      "type": "Feature",
      "properties": {
        "basin": "MCD Drains - South Zone",
        "drain_name": "Maharani Bagh Drain",
        "seq_no": 7,
        "status": "Existing / Remodeling",
        "source": "MPD-1976"
      },
      "geometry": {
        "type": "Point",
        "coordinates": [
          77.2,
          28.5433
        ]
      }
    },
    {
      "type": "Feature",
      "properties": {
        "basin": "MCD Drains - South Zone",
        "drain_name": "Sunehripulla Drain",
        "seq_no": 8,
        "status": "Existing / Remodeling",
        "source": "MPD-1976"
      },
      "geometry": {
        "type": "Point",
        "coordinates": [
          77.2,
          28.5433
        ]
      }
    },
    {
      "type": "Feature",
      "properties": {
        "basin": "MCD Drains - South Zone",
        "drain_name": "Lajpat Nagar Drain",
        "seq_no": 9,
        "status": "Existing / Remodeling",
        "source": "MPD-1976"
      },
      "geometry": {
        "type": "Point",
        "coordinates": [
          77.2,
          28.5433
        ]
      }
    },
    {
      "type": "Feature",
      "properties": {
        "basin": "MCD Drains - South Zone",
        "drain_name": "A.I.I.M.S Drain",
        "seq_no": 10,
        "status": "Existing / Remodeling",
        "source": "MPD-1976"
      },
      "geometry": {
        "type": "Point",
        "coordinates": [
          77.2,
          28.5433
        ]
      }
    },
    {
      "type": "Feature",
      "properties": {
        "basin": "Cantonment Area",
        "drain_name": "Sadar Bazzar Main Drain",
        "seq_no": 1,
        "status": "Existing / Remodeling",
        "source": "MPD-1976"
      },
      "geometry": {
        "type": "Point",
        "coordinates": [
          77.145,
          28.5822
        ]
      }
    },
    {
      "type": "Feature",
      "properties": {
        "basin": "Cantonment Area",
        "drain_name": "Sadar Bazzar Link Drain No.II",
        "seq_no": 2,
        "status": "Existing / Remodeling",
        "source": "MPD-1976"
      },
      "geometry": {
        "type": "Point",
        "coordinates": [
          77.145,
          28.5822
        ]
      }
    },
    {
      "type": "Feature",
      "properties": {
        "basin": "Cantonment Area",
        "drain_name": "Maude Line Drain",
        "seq_no": 3,
        "status": "Existing / Remodeling",
        "source": "MPD-1976"
      },
      "geometry": {
        "type": "Point",
        "coordinates": [
          77.145,
          28.5822
        ]
      }
    },
    {
      "type": "Feature",
      "properties": {
        "basin": "Cantonment Area",
        "drain_name": "Hospital Link Drain",
        "seq_no": 4,
        "status": "Existing / Remodeling",
        "source": "MPD-1976"
      },
      "geometry": {
        "type": "Point",
        "coordinates": [
          77.145,
          28.5822
        ]
      }
    },
    {
      "type": "Feature",
      "properties": {
        "basin": "Cantonment Area",
        "drain_name": "New Pratap Chowk Link Drain",
        "seq_no": 5,
        "status": "Existing / Remodeling",
        "source": "MPD-1976"
      },
      "geometry": {
        "type": "Point",
        "coordinates": [
          77.145,
          28.5822
        ]
      }
    },
    {
      "type": "Feature",
      "properties": {
        "basin": "Cantonment Area",
        "drain_name": "Base Hospital Link Drain",
        "seq_no": 6,
        "status": "Existing / Remodeling",
        "source": "MPD-1976"
      },
      "geometry": {
        "type": "Point",
        "coordinates": [
          77.145,
          28.5822
        ]
      }
    },
    {
      "type": "Feature",
      "properties": {
        "basin": "Cantonment Area",
        "drain_name": "Sadar Bazzar Link Drain No.I",
        "seq_no": 7,
        "status": "Existing / Remodeling",
        "source": "MPD-1976"
      },
      "geometry": {
        "type": "Point",
        "coordinates": [
          77.145,
          28.5822
        ]
      }
    },
    {
      "type": "Feature",
      "properties": {
        "basin": "Cantonment Area",
        "drain_name": "Mehram Nagar Link Drain",
        "seq_no": 8,
        "status": "Existing / Remodeling",
        "source": "MPD-1976"
      },
      "geometry": {
        "type": "Point",
        "coordinates": [
          77.145,
          28.5822
        ]
      }
    },
    {
      "type": "Feature",
      "properties": {
        "basin": "Cantonment Area",
        "drain_name": "Loreto School Link Drain No. I",
        "seq_no": 9,
        "status": "Existing / Remodeling",
        "source": "MPD-1976"
      },
      "geometry": {
        "type": "Point",
        "coordinates": [
          77.145,
          28.5822
        ]
      }
    },
    {
      "type": "Feature",
      "properties": {
        "basin": "Cantonment Area",
        "drain_name": "Mehram Nagar Drain",
        "seq_no": 10,
        "status": "Existing / Remodeling",
        "source": "MPD-1976"
      },
      "geometry": {
        "type": "Point",
        "coordinates": [
          77.145,
          28.5822
        ]
      }
    },
    {
      "type": "Feature",
      "properties": {
        "basin": "Cantonment Area",
        "drain_name": "Loreto School Link Drain No. II",
        "seq_no": 11,
        "status": "Existing / Remodeling",
        "source": "MPD-1976"
      },
      "geometry": {
        "type": "Point",
        "coordinates": [
          77.145,
          28.5822
        ]
      }
    },
    {
      "type": "Feature",
      "properties": {
        "basin": "Cantonment Area",
        "drain_name": "Subroto Park Link Drain",
        "seq_no": 12,
        "status": "Existing / Remodeling",
        "source": "MPD-1976"
      },
      "geometry": {
        "type": "Point",
        "coordinates": [
          77.145,
          28.5822
        ]
      }
    },
    {
      "type": "Feature",
      "properties": {
        "basin": "Cantonment Area",
        "drain_name": "Khyber Line Link Drain",
        "seq_no": 13,
        "status": "Existing / Remodeling",
        "source": "MPD-1976"
      },
      "geometry": {
        "type": "Point",
        "coordinates": [
          77.145,
          28.5822
        ]
      }
    },
    {
      "type": "Feature",
      "properties": {
        "basin": "Cantonment Area",
        "drain_name": "Subroto Park Commond Link Drain",
        "seq_no": 14,
        "status": "Existing / Remodeling",
        "source": "MPD-1976"
      },
      "geometry": {
        "type": "Point",
        "coordinates": [
          77.145,
          28.5822
        ]
      }
    },
    {
      "type": "Feature",
      "properties": {
        "basin": "Cantonment Area",
        "drain_name": "Palam Drain",
        "seq_no": 15,
        "status": "Existing / Remodeling",
        "source": "MPD-1976"
      },
      "geometry": {
        "type": "Point",
        "coordinates": [
          77.145,
          28.5822
        ]
      }
    },
    {
      "type": "Feature",
      "properties": {
        "basin": "Cantonment Area",
        "drain_name": "Railway Station Link Drain",
        "seq_no": 16,
        "status": "Existing / Remodeling",
        "source": "MPD-1976"
      },
      "geometry": {
        "type": "Point",
        "coordinates": [
          77.145,
          28.5822
        ]
      }
    },
    {
      "type": "Feature",
      "properties": {
        "basin": "Cantonment Area",
        "drain_name": "C.O.D Link Drain",
        "seq_no": 17,
        "status": "Existing / Remodeling",
        "source": "MPD-1976"
      },
      "geometry": {
        "type": "Point",
        "coordinates": [
          77.145,
          28.5822
        ]
      }
    },
    {
      "type": "Feature",
      "properties": {
        "basin": "Cantonment Area",
        "drain_name": "Gopi Nath bajar Link Drain",
        "seq_no": 18,
        "status": "Existing / Remodeling",
        "source": "MPD-1976"
      },
      "geometry": {
        "type": "Point",
        "coordinates": [
          77.145,
          28.5822
        ]
      }
    },
    {
      "type": "Feature",
      "properties": {
        "basin": "Cantonment Area",
        "drain_name": "Kirby Place link Drain",
        "seq_no": 19,
        "status": "Existing / Remodeling",
        "source": "MPD-1976"
      },
      "geometry": {
        "type": "Point",
        "coordinates": [
          77.145,
          28.5822
        ]
      }
    },
    {
      "type": "Feature",
      "properties": {
        "basin": "Cantonment Area",
        "drain_name": "Brar Square Link Drain",
        "seq_no": 20,
        "status": "Existing / Remodeling",
        "source": "MPD-1976"
      },
      "geometry": {
        "type": "Point",
        "coordinates": [
          77.145,
          28.5822
        ]
      }
    },
    {
      "type": "Feature",
      "properties": {
        "basin": "Cantonment Area",
        "drain_name": "Khandar Line Link Drain",
        "seq_no": 21,
        "status": "Existing / Remodeling",
        "source": "MPD-1976"
      },
      "geometry": {
        "type": "Point",
        "coordinates": [
          77.145,
          28.5822
        ]
      }
    },
    {
      "type": "Feature",
      "properties": {
        "basin": "Cantonment Area",
        "drain_name": "Jherara Link Drain",
        "seq_no": 22,
        "status": "Existing / Remodeling",
        "source": "MPD-1976"
      },
      "geometry": {
        "type": "Point",
        "coordinates": [
          77.145,
          28.5822
        ]
      }
    },
    {
      "type": "Feature",
      "properties": {
        "basin": "Cantonment Area",
        "drain_name": "Mall Road Link Drain",
        "seq_no": 23,
        "status": "Existing / Remodeling",
        "source": "MPD-1976"
      },
      "geometry": {
        "type": "Point",
        "coordinates": [
          77.145,
          28.5822
        ]
      }
    },
    {
      "type": "Feature",
      "properties": {
        "basin": "NDMC Drain",
        "drain_name": "Kushak Nalla",
        "seq_no": 1,
        "status": "Existing / Remodeling",
        "source": "MPD-1976"
      },
      "geometry": {
        "type": "Point",
        "coordinates": [
          77.209,
          28.6139
        ]
      }
    },
    {
      "type": "Feature",
      "properties": {
        "basin": "NDMC Drain",
        "drain_name": "System No. 2",
        "seq_no": 2,
        "status": "Existing / Remodeling",
        "source": "MPD-1976"
      },
      "geometry": {
        "type": "Point",
        "coordinates": [
          77.209,
          28.6139
        ]
      }
    },
    {
      "type": "Feature",
      "properties": {
        "basin": "NDMC Drain",
        "drain_name": "System No. 3",
        "seq_no": 3,
        "status": "Existing / Remodeling",
        "source": "MPD-1976"
      },
      "geometry": {
        "type": "Point",
        "coordinates": [
          77.209,
          28.6139
        ]
      }
    },
    {
      "type": "Feature",
      "properties": {
        "basin": "NDMC Drain",
        "drain_name": "System No. 4",
        "seq_no": 4,
        "status": "Existing / Remodeling",
        "source": "MPD-1976"
      },
      "geometry": {
        "type": "Point",
        "coordinates": [
          77.209,
          28.6139
        ]
      }
    },
    {
      "type": "Feature",
      "properties": {
        "basin": "NDMC Drain",
        "drain_name": "System No. 5",
        "seq_no": 5,
        "status": "Existing / Remodeling",
        "source": "MPD-1976"
      },
      "geometry": {
        "type": "Point",
        "coordinates": [
          77.209,
          28.6139
        ]
      }
    },
    {
      "type": "Feature",
      "properties": {
        "basin": "NDMC Drain",
        "drain_name": "System No. 6",
        "seq_no": 6,
        "status": "Existing / Remodeling",
        "source": "MPD-1976"
      },
      "geometry": {
        "type": "Point",
        "coordinates": [
          77.209,
          28.6139
        ]
      }
    },
    {
      "type": "Feature",
      "properties": {
        "basin": "NDMC Drain",
        "drain_name": "System No. 7",
        "seq_no": 7,
        "status": "Existing / Remodeling",
        "source": "MPD-1976"
      },
      "geometry": {
        "type": "Point",
        "coordinates": [
          77.209,
          28.6139
        ]
      }
    },
    {
      "type": "Feature",
      "properties": {
        "basin": "NDMC Drain",
        "drain_name": "System No. 8",
        "seq_no": 8,
        "status": "Existing / Remodeling",
        "source": "MPD-1976"
      },
      "geometry": {
        "type": "Point",
        "coordinates": [
          77.209,
          28.6139
        ]
      }
    },
    {
      "type": "Feature",
      "properties": {
        "basin": "NDMC Drain",
        "drain_name": "System No. 9",
        "seq_no": 9,
        "status": "Existing / Remodeling",
        "source": "MPD-1976"
      },
      "geometry": {
        "type": "Point",
        "coordinates": [
          77.209,
          28.6139
        ]
      }
    },
    {
      "type": "Feature",
      "properties": {
        "basin": "NDMC Drain",
        "drain_name": "System No. 10",
        "seq_no": 10,
        "status": "Existing / Remodeling",
        "source": "MPD-1976"
      },
      "geometry": {
        "type": "Point",
        "coordinates": [
          77.209,
          28.6139
        ]
      }
    },
    {
      "type": "Feature",
      "properties": {
        "basin": "NDMC Drain",
        "drain_name": "System No. 11",
        "seq_no": 11,
        "status": "Existing / Remodeling",
        "source": "MPD-1976"
      },
      "geometry": {
        "type": "Point",
        "coordinates": [
          77.209,
          28.6139
        ]
      }
    },
    {
      "type": "Feature",
      "properties": {
        "basin": "NDMC Drain",
        "drain_name": "System No. 12",
        "seq_no": 12,
        "status": "Existing / Remodeling",
        "source": "MPD-1976"
      },
      "geometry": {
        "type": "Point",
        "coordinates": [
          77.209,
          28.6139
        ]
      }
    },
    {
      "type": "Feature",
      "properties": {
        "basin": "NDMC Drain",
        "drain_name": "System No. 13",
        "seq_no": 13,
        "status": "Existing / Remodeling",
        "source": "MPD-1976"
      },
      "geometry": {
        "type": "Point",
        "coordinates": [
          77.209,
          28.6139
        ]
      }
    },
    {
      "type": "Feature",
      "properties": {
        "basin": "NDMC Drain",
        "drain_name": "System No. 14",
        "seq_no": 14,
        "status": "Existing / Remodeling",
        "source": "MPD-1976"
      },
      "geometry": {
        "type": "Point",
        "coordinates": [
          77.209,
          28.6139
        ]
      }
    },
    {
      "type": "Feature",
      "properties": {
        "basin": "NDMC Drain",
        "drain_name": "System No. 15",
        "seq_no": 15,
        "status": "Existing / Remodeling",
        "source": "MPD-1976"
      },
      "geometry": {
        "type": "Point",
        "coordinates": [
          77.209,
          28.6139
        ]
      }
    },
    {
      "type": "Feature",
      "properties": {
        "basin": "NDMC Drain",
        "drain_name": "Ashoka Hotel Drain",
        "seq_no": 16,
        "status": "Existing / Remodeling",
        "source": "MPD-1976"
      },
      "geometry": {
        "type": "Point",
        "coordinates": [
          77.209,
          28.6139
        ]
      }
    },
    {
      "type": "Feature",
      "properties": {
        "basin": "NDMC Drain",
        "drain_name": "karbala Drain",
        "seq_no": 17,
        "status": "Existing / Remodeling",
        "source": "MPD-1976"
      },
      "geometry": {
        "type": "Point",
        "coordinates": [
          77.209,
          28.6139
        ]
      }
    },
    {
      "type": "Feature",
      "properties": {
        "basin": "NDMC Drain",
        "drain_name": "Lodhi Colony Drain",
        "seq_no": 18,
        "status": "Existing / Remodeling",
        "source": "MPD-1976"
      },
      "geometry": {
        "type": "Point",
        "coordinates": [
          77.209,
          28.6139
        ]
      }
    }
  ]
}